41P/Tuttle-Giacobini-Kresak,e,9.2208,140.9891,62.2200,3.088166,0.1816156,0.65997079,330.8661,04/06.0/2022,2000,g 10.0,16.0
# From MPC 94283
42P/Neujmin,e,3.9914,150.1750,147.2334,4.873298,0.0916156,0.58505739,233.6738,04/06.0/2022,2000,g 13.0,6.0
# From MPEC 2022-C56
43P/Wolf-Harrington,e,9.3342,244.0821,224.1129,4.317937,0.1098474,0.43536122,226.1304,04/06.0/2022,2000,g  8.0,6.0
# From MPEC 2021-TD0
44P/Reinmuth,e,5.8963,286.4719,58.0876,3.692352,0.1389151,0.42782280,357.5987,04/06.0/2022,2000,g  8.3,6.0
# From MPC103849
45P/Honda-Mrkos-Pajdusakova,e,4.3226,87.7032,327.9081,3.052880,0.1847734,0.81748929,356.3880,04/06.0/2022,2000,g 13.5,8.0
# From MPEC 2021-O56
46P/Wirtanen,e,11.7462,82.1573,356.3301,3.091858,0.1812904,0.65845861,219.5428,04/06.0/2022,2000,g 14.0,6.0
# From MPEC 2021-S45
47P/Ashbrook-Jackson,e,13.0412,356.9213,357.6832,4.123245,0.1177187,0.31859580,206.9759,04/06.0/2022,2000,g 12.5,4.0
# From MPEC 2021-F20
48P/Johnson,e,12.2037,110.1142,216.6963,3.501044,0.1504554,0.42735582,200.3776,04/06.0/2022,2000,g 12.4,4.0
# From MPEC 2021-F20
49P/Arend-Rigaux,e,19.0472,118.7953,332.9263,3.569711,0.1461351,0.59830416,199.0556,04/06.0/2022,2000,g 13.4,4.0
# From MPEC 2015-S97
50P/Arend,e,19.1006,355.1781,49.3181,4.088197,0.1192357,0.52932475,268.4236,04/06.0/2022,2000,g  9.5,6.0
# From NK 3014
51P-A/Harrington,e,5.4261,83.6755,269.2670,3.708099,0.1380311,0.54355204,335.0208,04/06.0/2022,2000,g 10.0,8.0
# From MPEC 2015-L08
51P-D/Harrington,e,5.4275,83.6645,269.2566,3.707164,0.1380834,0.54349034,335.3092,04/06.0/2022,2000,g 16.0,8.0
# From MPEC 2022-F14
52P/Harrington-Abell,e,10.2315,336.8378,139.5873,3.864801,0.1297219,0.54016496,23.7153,04/06.0/2022,2000,g 13.5,6.0
# From MPC100283
53P/Van Biesbroeck,e,6.6095,148.8109,134.5049,5.429580,0.0779031,0.55129047,168.7935,04/06.0/2022,2000,g  7.7,4.8
# From MPC 89011
54P/de Vico-Swift-NEAT,e,6.0647,358.8173,1.8197,3.790307,0.1335650,0.42630418,242.2457,04/06.0/2022,2000,g  9.0,4.0
# From MPC 31070
55P/Tempel-Tuttle,e,162.4674,235.4120,172.4848,10.35668,0.0295715,0.90575713,261.5128,04/06.0/2022,2000,g  9.0,4.0
# From MPC101100
56P/Slaughter-Burnham,e,8.1612,345.9953,43.9908,5.067798,0.0863923,0.50805287,180.1372,04/06.0/2022,2000,g  8.5,6.0
# From MPEC 2022-C56
57P/duToit-Neujmin-Delporte,e,2.8518,188.7677,115.2338,3.446891,0.1540149,0.50105291,26.2807,04/06.0/2022,2000,g 12.5,6.0
# From MPEC 2021-O56
58P/Jackson-Neujmin,e,13.1088,159.0746,200.5072,4.086606,0.1193053,0.66281315,80.9280,04/06.0/2022,2000,g 15.5,6.0
# From MPEC 2021-F20
59P/Kearns-Kwee,e,9.3418,312.8204,127.5071,4.485212,0.1037599,0.47553670,134.6073,04/06.0/2022,2000,g  7.0,6.0
# From MPEC 2021-F20
60P/Tsuchinshan,e,3.5831,267.4879,216.9877,3.524953,0.1489272,0.53389056,180.9415,04/06.0/2022,2000,g 11.5,6.0
# From MPEC 2015-Q71
61P/Shajn-Schaldach,e,5.9995,162.9684,221.7270,3.690868,0.1389989,0.42417703,332.0627,04/06.0/2022,2000,g  6.0,10.0
# From MPC109147
62P/Tsuchinshan,e,4.7379,68.8853,47.3211,3.363087,0.1598074,0.62627622,259.7032,04/06.0/2022,2000,g  8.0,10.0
# From MPC 84320
63P/Wild,e,19.7297,358.0191,169.0470,5.608656,0.0742020,0.64907470,244.4319,04/06.0/2022,2000,g 10.5,6.0
# From MPEC 2021-F20
64P/Swift-Gehrels,e,8.9491,299.9647,97.0926,4.453029,0.1048868,0.68833656,130.9277,04/06.0/2022,2000,g 13.4,4.0
# From MPEC 2022-ED3
65P/Gunn,e,9.1770,62.0028,213.9050,3.887433,0.1285908,0.24893249,209.8455,04/06.0/2022,2000,g  5.0,6.0
# From MPEC 2021-F20
66P/duToit,e,18.6422,21.7972,257.4454,6.068852,0.0659241,0.78634912,93.4995,04/06.0/2022,2000,g 15.0,4.0
# From MPEC 2022-F14
67P/Churyumov-Gerasimenko,e,3.8716,36.3320,22.1405,3.456159,0.1533958,0.64971464,23.7658,04/06.0/2022,2000,g 11.0,4.0
# From MPC 75716
68P/Klemola,e,11.1112,175.0486,153.1973,4.956440,0.0893201,0.63753764,78.4985,04/06.0/2022,2000,g 10.0,4.0
# From MPC114607
69P/Taylor,e,22.0379,104.8158,343.4061,3.885906,0.1286665,0.41339665,143.4448,04/06.0/2022,2000,g  9.5,12.0
# From MPEC 2022-F14
70P/Kojima,e,6.5978,119.2673,1.8231,3.678219,0.1397165,0.45382190,21.5021,04/06.0/2022,2000,g 11.0,6.0
# From MPEC 2022-F14
71P/Clark,e,9.4375,59.3993,209.0611,3.139363,0.1771911,0.49393545,308.2980,04/06.0/2022,2000,g  9.8,6.0
# From MPC 89011
72P/Denning-Fujikawa,e,10.9470,26.6976,346.7090,4.309311,0.1101773,0.81860680,311.9736,04/06.0/2022,2000,g 17.5,10.0
# From MPEC 2022-F14
73P/Schwassmann-Wachmann,e,11.2276,69.6122,199.4843,3.092608,0.1812245,0.68538754,334.3043,04/06.0/2022,2000,g 11.5,6.0
# From MPC106348
73P-T/Schwassmann-Wachmann,e,11.2296,69.6153,199.4637,3.094082,0.1810949,0.68558672,334.0672,04/06.0/2022,2000,g 11.5,6.0
# From MPEC 2021-UA9
74P/Smirnova-Chernykh,e,6.0214,61.2012,127.6684,4.466848,0.1044004,0.12200997,146.3805,04/06.0/2022,2000,g  5.0,6.0
# From MPEC 2021-F20
76P/West-Kohoutek-Ikemura,e,30.4685,84.1080,359.9442,3.471531,0.1523781,0.53835184,136.0593,04/06.0/2022,2000,g 15.5,4.0
# From MPEC 2022-ED3
77P/Longmore,e,24.3183,14.7711,196.7814,3.623205,0.1429107,0.35189209,308.2288,04/06.0/2022,2000,g  7.0,8.0
# From MPEC 2021-O56
78P/Gehrels,e,6.2543,210.5150,192.6326,3.737945,0.1363813,0.46249594,149.8392,04/06.0/2022,2000,g  5.5,8.0
# From MPC 94675
79P/du Toit-Hartley,e,3.1480,280.5296,281.7803,2.943227,0.1951949,0.61891791,254.1058,04/06.0/2022,2000,g 16.0,4.0
# From MPEC 2014-P41
80P/Peters-Hartley,e,29.9229,259.8039,339.2460,4.024580,0.1220740,0.59866384,329.8644,04/06.0/2022,2000,g  9.0,4.0
# From MPEC 2022-F14
81P/Wild,e,3.2366,136.0991,41.6496,3.452996,0.1536066,0.53712958,321.0369,04/06.0/2022,2000,g  7.0,6.0
# From MPC133426
82P/Gehrels,e,1.1290,239.3127,226.4961,4.134225,0.1172500,0.12178938,162.0827,04/06.0/2022,2000,g 15.0,4.0
# From MPEC 2020-FB5
84P/Giclas,e,7.5508,108.1623,281.5917,3.549593,0.1473792,0.51591463,98.8894,04/06.0/2022,2000,g  9.5,8.0
# From MPC109147
86P/Wild,e,15.4753,72.3558,179.4108,3.601067,0.1442305,0.37222072,8.2765,04/06.0/2022,2000,g 11.0,6.0
# From MPEC 2020-SI8
87P/Bus,e,2.6876,181.0533,26.4609,3.458575,0.1532351,0.39526690,105.8017,04/06.0/2022,2000,g  7.2,10.0
# From MPEC 2022-ED3
88P/Howell,e,4.3829,56.6778,235.9188,3.105476,0.1800992,0.56403303,100.2271,04/06.0/2022,2000,g 11.0,6.0
# From MPC100283
89P/Russell,e,12.0701,41.3581,250.3831,3.753860,0.1355148,0.40836737,262.3803,04/06.0/2022,2000,g 11.5,6.0
# From MPC107051
90P/Gehrels,e,9.6504,13.2049,29.0523,6.051586,0.0662064,0.51062180,115.9036,04/06.0/2022,2000,g  8.5,6.0
# From MPEC 2021-S45
91P/Russell,e,14.0787,247.5172,355.3333,3.902604,0.1278416,0.33267314,65.3727,04/06.0/2022,2000,g  7.5,6.0
# From MPEC 2014-J58
92P/Sanguin,e,19.5057,181.3626,163.7827,5.343583,0.0797912,0.66105228,206.4883,04/06.0/2022,2000,g 12.0,6.0
# From NK 2707
93P/Lovas,e,12.2035,339.6468,74.8097,4.381332,0.1074719,0.61311073,200.0376,04/06.0/2022,2000,g  9.0,4.0
# From MPEC 2021-Y10
94P/Russell,e,6.1881,70.8580,92.4459,3.507887,0.1500154,0.36514290,298.4632,04/06.0/2022,2000,g  9.0,6.0
# From MPC 75717
95P/Chiron,e,6.9236,209.2925,339.5927,13.70857,0.0194185,0.37649971,186.3085,04/06.0/2022,2000,g  6.5,2.0
# From MPEC 2017-T14
96P/Machholz,e,57.5116,93.9604,14.7495,3.029420,0.1869239,0.96157388,303.9034,04/06.0/2022,2000,g  9.0,4.0
# From MPEC 2022-C56
97P/Metcalf-Brewington,e,17.9521,184.0781,229.9682,4.759195,0.0949301,0.45994741,4.6951,04/06.0/2022,2000,g  5.5,6.0
# From MPEC 2021-W31
98P/Takamizawa,e,10.5602,114.6919,157.8386,3.795771,0.1332766,0.56226351,60.8052,04/06.0/2022,2000,g  9.0,8.0
# From MPEC 2022-F14
99P/Kowal,e,4.3396,28.1015,174.9337,6.105913,0.0653248,0.22925376,359.5658,04/06.0/2022,2000,g  4.5,6.0
# From MPEC 2022-F14
100P/Hartley,e,25.5650,37.6883,181.9756,3.432615,0.1549767,0.41222469,340.3239,04/06.0/2022,2000,g  9.0,8.0
# From MPEC 2022-ED3
101P/Chernykh,e,5.0520,116.2211,277.7234,5.805960,0.0704520,0.59621863,57.3608,04/06.0/2022,2000,g 10.0,4.8
# From MPEC 2022-C56
102P/Shoemaker,e,25.8845,339.3655,20.5907,3.814487,0.1322970,0.45717639,58.0070,04/06.0/2022,2000,g  6.5,8.0
# From MPEC 2018-HA5
103P/Hartley,e,13.6074,219.7416,181.2854,3.475568,0.1521127,0.69355508,275.6372,04/06.0/2022,2000,g  8.5,8.0
# From MPEC 2022-F14
104P/Kowal,e,5.7011,207.2126,227.2503,3.205792,0.1717122,0.66528235,14.4890,04/06.0/2022,2000,g 16.0,4.0
# From MPC109147
105P/Singer Brewster,e,9.1689,192.4019,46.4736,3.468352,0.1525876,0.40908510,203.8870,04/06.0/2022,2000,g 11.5,6.0
# From MPEC 2022-F14
106P/Schuster,e,19.5359,48.8820,353.6842,3.763652,0.1349864,0.59381554,31.0748,04/06.0/2022,2000,g 14.0,4.8
# From MPEC 2015-M77
107P/Wilson-Harrington,e,2.7993,266.7790,95.4392,2.624808,0.2317703,0.63171865,327.3978,04/06.0/2022,2000,g  9.0,4.0
# From MPEC 2022-F14
108P/Ciffreo,e,11.4362,50.2882,354.4355,3.739000,0.1363236,0.55594216,28.3392,04/06.0/2022,2000,g  8.0,12.0
# From  105, 420
109P/Swift-Tuttle,e,113.9284,139.0850,152.9740,26.16990,0.0073621,0.96268168,78.8567,04/06.0/2022,2000,g  4.0,6.0
# From MPEC 2022-F14
110P/Hartley,e,11.7058,287.5344,167.4485,3.603079,0.1441098,0.31844050,24.4531,04/06.0/2022,2000,g  1.0,12.0
# From MPC 75718
111P/Helin-Roman-Crockett,e,4.2262,89.7628,0.9967,4.149228,0.1166146,0.10644461,34.3224,04/06.0/2022,2000,g  5.0,8.0
# From MPEC 2021-S45
112P/Urata-Niijima,e,24.2051,31.8319,21.4704,3.525064,0.1489202,0.59018092,117.3222,04/06.0/2022,2000,g 14.0,6.0
# From MPEC 2022-D36
113P/Spitaler,e,5.2901,306.6780,115.5093,3.690972,0.1389930,0.41974804,352.1583,04/06.0/2022,2000,g 13.5,4.0
# From MPEC 2021-S45
114P/Wiseman-Skiff,e,18.2785,271.0374,172.7506,3.544065,0.1477242,0.55498987,120.0838,04/06.0/2022,2000,g 11.5,6.0
# From MPEC 2021-UA9
115P/Maury,e,11.6774,176.0084,120.9874,4.271781,0.1116325,0.51835533,68.7093,04/06.0/2022,2000,g 10.5,6.0
# From MPEC 2022-F14
116P/Wild,e,3.6034,20.9799,173.3020,3.490665,0.1511269,0.37059940,344.5922,04/06.0/2022,2000,g  2.5,10.0
# From MPEC 2022-F14
117P/Helin-Roman-Alu,e,8.7039,58.8412,222.9307,4.082908,0.1194675,0.25551916,348.9223,04/06.0/2022,2000,g  2.5,8.0
# From MPEC 2021-TD0
